STARLINK-2449
1 28112C 21027W   21325.15165697  .00004371  00000-0  29280-3 0  3253
2 28112  53.0542  22.5584 0001346  57.7077 206.6121 15.06398492    16
